[{"OBJECT_NAME":"STARLINK-5700","OBJECT_ID":"2023-020AQ","EPOCH":"2026-03-08T20:49:44.943456","MEAN_MOTION":15.02911944,"ECCENTRICITY":0.00011702,"INCLINATION":43.0074,"RA_OF_ASC_NODE":356.305,"ARG_OF_PERICENTER":316.9525,"MEAN_ANOMALY":43.1226,"EPHEMERIS_TYPE":0,"CLASSIFICATION_TYPE":"U","NORAD_CAT_ID":55607,"ELEMENT_SET_NO":999,"REV_AT_EPOCH":16894,"BSTAR":0.0032081373,"MEAN_MOTION_DOT":0.00043841,"MEAN_MOTION_DDOT":0},{"OBJECT_NAME":"CZ-2D DEB","OBJECT_ID":"2017-060B","EPOCH":"2026-03-09T14:15:36.855648","MEAN_MOTION":14.99543568,"ECCENTRICITY":0.002893,"INCLINATION":97.5408,"RA_OF_ASC_NODE":90.0945,"ARG_OF_PERICENTER":284.1616,"MEAN_ANOMALY":75.6394,"EPHEMERIS_TYPE":0,"CLASSIFICATION_TYPE":"U","NORAD_CAT_ID":44609,"ELEMENT_SET_NO":999,"REV_AT_EPOCH":45025,"BSTAR":0.00057261,"MEAN_MOTION_DOT":7.042e-5,"MEAN_MOTION_DDOT":0}]
